[{"OBJECT_NAME":"POLYITAN-1","OBJECT_ID":"2014-033AJ","EPOCH":"2026-03-09T22:27:50.258304","MEAN_MOTION":15.29568085,"ECCENTRICITY":0.00093607,"INCLINATION":98.1053,"RA_OF_ASC_NODE":86.0432,"ARG_OF_PERICENTER":127.248,"MEAN_ANOMALY":232.9614,"EPHEMERIS_TYPE":0,"CLASSIFICATION_TYPE":"U","NORAD_CAT_ID":40042,"ELEMENT_SET_NO":999,"REV_AT_EPOCH":63840,"BSTAR":0.00083772474,"MEAN_MOTION_DOT":0.00024003,"MEAN_MOTION_DDOT":0},{"OBJECT_NAME":"STARLINK-35796","OBJECT_ID":"2025-265AB","EPOCH":"2026-03-09T23:03:38.767968","MEAN_MOTION":15.27599979,"ECCENTRICITY":0.00010863,"INCLINATION":43.0032,"RA_OF_ASC_NODE":276.5118,"ARG_OF_PERICENTER":274.2351,"MEAN_ANOMALY":85.8377,"EPHEMERIS_TYPE":0,"CLASSIFICATION_TYPE":"U","NORAD_CAT_ID":66541,"ELEMENT_SET_NO":999,"REV_AT_EPOCH":1715,"BSTAR":0.0014177642,"MEAN_MOTION_DOT":0.00038982,"MEAN_MOTION_DDOT":0}]
